{"type": "FeatureCollection", "features": [ {"type": "Feature", "properties": {"norad_id": 32384, "name": "GPS BIIRM-5 (PRN 29)", "group": "gps-ops", "lat": 29.722204770007718, "lon": 77.66844390265695, "alt_km": 20101.062463143393, "timestamp": "2025-12-27T05:29:39.461865+00:00", "meta": {"OBJECT_NAME": "GPS BIIRM-5 (PRN 29)", "OBJECT_ID": "2007-062A", "EPOCH": "2025-12-26T06:34:08.123232", "MEAN_MOTION": 2.00549336, "ECCENTRICITY": 0.0031409, "INCLINATION": 55.1705, "RA_OF_ASC_NODE": 281.103, "ARG_OF_PERICENTER": 162.2528, "MEAN_ANOMALY": 11.0381, "EPHEMERIS_TYPE": 0, "CLASSIFICATION_TYPE": "U", "NORAD_CAT_ID": 32384, "ELEMENT_SET_NO": 999, "REV_AT_EPOCH": 13204, "BSTAR": 0, "MEAN_MOTION_DOT": -2.8e-07, "MEAN_MOTION_DDOT": 0}, "tle": {"line1": "1 32384U 07062A   25360.27370513 -.00000028  00000+0  00000+0 0  9998", "line2": "2 32384  55.1705 281.1030 0031409 162.2528  11.0381  2.00549336132049"}}, "geometry": {"type": "Point", "coordinates": [77.66844390265695, 29.722204770007718]}}, {"type": "Feature", "properties": {"norad_id": 32711, "name": "GPS BIIRM-6 (PRN 07)", "group": "gps-ops", "lat": 48.76221807137253, "lon": -148.6418771556234, "alt_km": 20714.720755465376, "timestamp": "2025-12-27T05:29:39.461877+00:00", "meta": {"OBJECT_NAME": "GPS BIIRM-6 (PRN 07)", "OBJECT_ID": "2008-012A", "EPOCH": "2025-12-26T15:12:37.851552", "MEAN_MOTION": 2.00566161, "ECCENTRICITY": 0.02030689, "INCLINATION": 54.4786, "RA_OF_ASC_NODE": 156.8183, "ARG_OF_PERICENTER": 245.1136, "MEAN_ANOMALY": 112.7544, "EPHEMERIS_TYPE": 0, "CLASSIFICATION_TYPE": "U", "NORAD_CAT_ID": 32711, "ELEMENT_SET_NO": 999, "REV_AT_EPOCH": 13029, "BSTAR": 0, "MEAN_MOTION_DOT": 1.07e-06, "MEAN_MOTION_DDOT": 0}, "tle": {"line1": "1 32711U 08012A   25360.63377143  .00000107  00000+0  00000+0 0  9991", "line2": "2 32711  54.4786 156.8183 0203068 245.1136 112.7544  2.00566161130299"}}, "geometry": {"type": "Point", "coordinates": [-148.6418771556234, 48.76221807137253]}}, {"type": "Feature", "properties": {"norad_id": 35752, "name": "GPS BIIRM-8 (PRN 05)", "group": "gps-ops", "lat": 56.01243778904842, "lon": 119.71061280952212, "alt_km": 20039.21063437256, "timestamp": "2025-12-27T05:29:39.461888+00:00", "meta": {"OBJECT_NAME": "GPS BIIRM-8 (PRN 05)", "OBJECT_ID": "2009-043A", "EPOCH": "2025-12-26T02:26:22.079616", "MEAN_MOTION": 2.00564782, "ECCENTRICITY": 0.00515557, "INCLINATION": 56.1002, "RA_OF_ASC_NODE": 34.2563, "ARG_OF_PERICENTER": 81.6915, "MEAN_ANOMALY": 271.8027, "EPHEMERIS_TYPE": 0, "CLASSIFICATION_TYPE": "U", "NORAD_CAT_ID": 35752, "ELEMENT_SET_NO": 999, "REV_AT_EPOCH": 11988, "BSTAR": 0, "MEAN_MOTION_DOT": -5.1e-07, "MEAN_MOTION_DDOT": 0}, "tle": {"line1": "1 35752U 09043A   25360.10164444 -.00000051  00000+0  00000+0 0  9993", "line2": "2 35752  56.1002  34.2563 0051555  81.6915 271.8027  2.00564782119880"}}, "geometry": {"type": "Point", "coordinates": [119.71061280952212, 56.01243778904842]}}, {"type": "Feature", "properties": {"norad_id": 36585, "name": "GPS BIIF-1  (PRN 25)", "group": "gps-ops", "lat": -21.044865323854978, "lon": 51.560354927582345, "alt_km": 20445.683934887664, "timestamp": "2025-12-27T05:29:39.461900+00:00", "meta": {"OBJECT_NAME": "GPS BIIF-1  (PRN 25)", "OBJECT_ID": "2010-022A", "EPOCH": "2025-12-26T01:43:04.882656", "MEAN_MOTION": 2.00553834, "ECCENTRICITY": 0.01266071, "INCLINATION": 54.2982, "RA_OF_ASC_NODE": 215.5361, "ARG_OF_PERICENTER": 65.2423, "MEAN_ANOMALY": 24.4831, "EPHEMERIS_TYPE": 0, "CLASSIFICATION_TYPE": "U", "NORAD_CAT_ID": 36585, "ELEMENT_SET_NO": 999, "REV_AT_EPOCH": 11412, "BSTAR": 0, "MEAN_MOTION_DOT": 8.1e-07, "MEAN_MOTION_DDOT": 0}, "tle": {"line1": "1 36585U 10022A   25360.07158429  .00000081  00000+0  00000+0 0  9991", "line2": "2 36585  54.2982 215.5361 0126607  65.2423  24.4831  2.00553834114127"}}, "geometry": {"type": "Point", "coordinates": [51.560354927582345, -21.044865323854978]}}, {"type": "Feature", "properties": {"norad_id": 38833, "name": "GPS BIIF-3  (PRN 24)", "group": "gps-ops", "lat": -43.155917949055485, "lon": 106.79885900925743, "alt_km": 20432.017937846824, "timestamp": "2025-12-27T05:29:39.461911+00:00", "meta": {"OBJECT_NAME": "GPS BIIF-3  (PRN 24)", "OBJECT_ID": "2012-053A", "EPOCH": "2025-12-26T07:30:08.502624", "MEAN_MOTION": 2.00565043, "ECCENTRICITY": 0.0176105, "INCLINATION": 53.56, "RA_OF_ASC_NODE": 150.6829, "ARG_OF_PERICENTER": 64.189, "MEAN_ANOMALY": 297.6002, "EPHEMERIS_TYPE": 0, "CLASSIFICATION_TYPE": "U", "NORAD_CAT_ID": 38833, "ELEMENT_SET_NO": 999, "REV_AT_EPOCH": 9597, "BSTAR": 0, "MEAN_MOTION_DOT": 9.8e-07, "MEAN_MOTION_DDOT": 0}, "tle": {"line1": "1 38833U 12053A   25360.31259841  .00000098  00000+0  00000+0 0  9990", "line2": "2 38833  53.5600 150.6829 0176105  64.1890 297.6002  2.00565043 95976"}}, "geometry": {"type": "Point", "coordinates": [106.79885900925743, -43.155917949055485]}}, {"type": "Feature", "properties": {"norad_id": 39166, "name": "GPS BIIF-4  (PRN 27)", "group": "gps-ops", "lat": 32.127483766682374, "lon": -57.58005846506721, "alt_km": 19813.519656969314, "timestamp": "2025-12-27T05:29:39.461922+00:00", "meta": {"OBJECT_NAME": "GPS BIIF-4  (PRN 27)", "OBJECT_ID": "2013-023A", "EPOCH": "2025-12-26T04:14:33.249408", "MEAN_MOTION": 2.00564526, "ECCENTRICITY": 0.0138718, "INCLINATION": 54.6404, "RA_OF_ASC_NODE": 276.0219, "ARG_OF_PERICENTER": 48.7908, "MEAN_ANOMALY": 312.4421, "EPHEMERIS_TYPE": 0, "CLASSIFICATION_TYPE": "U", "NORAD_CAT_ID": 39166, "ELEMENT_SET_NO": 999, "REV_AT_EPOCH": 9241, "BSTAR": 0, "MEAN_MOTION_DOT": -2.2e-07, "MEAN_MOTION_DDOT": 0}, "tle": {"line1": "1 39166U 13023A   25360.17677372 -.00000022  00000+0  00000+0 0  9993", "line2": "2 39166  54.6404 276.0219 0138718  48.7908 312.4421  2.00564526 92414"}}, "geometry": {"type": "Point", "coordinates": [-57.58005846506721, 32.127483766682374]}}, {"type": "Feature", "properties": {"norad_id": 39533, "name": "GPS BIIF-5  (PRN 30)", "group": "gps-ops", "lat": 33.373472610740095, "lon": -174.5920061032722, "alt_km": 20390.337361654558, "timestamp": "2025-12-27T05:29:39.461933+00:00", "meta": {"OBJECT_NAME": "GPS BIIF-5  (PRN 30)", "OBJECT_ID": "2014-008A", "EPOCH": "2025-12-23T16:16:25.020768", "MEAN_MOTION": 2.00548852, "ECCENTRICITY": 0.00795532, "INCLINATION": 53.5993, "RA_OF_ASC_NODE": 156.4877, "ARG_OF_PERICENTER": 225.9161, "MEAN_ANOMALY": 133.4108, "EPHEMERIS_TYPE": 0, "CLASSIFICATION_TYPE": "U", "NORAD_CAT_ID": 39533, "ELEMENT_SET_NO": 999, "REV_AT_EPOCH": 8616, "BSTAR": 0, "MEAN_MOTION_DOT": 8.2e-07, "MEAN_MOTION_DDOT": 0}, "tle": {"line1": "1 39533U 14008A   25357.67806737  .00000082  00000+0  00000+0 0  9990", "line2": "2 39533  53.5993 156.4877 0079553 225.9161 133.4108  2.00548852 86167"}}, "geometry": {"type": "Point", "coordinates": [-174.5920061032722, 33.373472610740095]}}, {"type": "Feature", "properties": {"norad_id": 39741, "name": "GPS BIIF-6  (PRN 06)", "group": "gps-ops", "lat": -15.43988819247679, "lon": 168.70674726178527, "alt_km": 20238.334372041878, "timestamp": "2025-12-27T05:29:39.461945+00:00", "meta": {"OBJECT_NAME": "GPS BIIF-6  (PRN 06)", "OBJECT_ID": "2014-026A", "EPOCH": "2025-12-26T22:52:18.643584", "MEAN_MOTION": 2.00560233, "ECCENTRICITY": 0.00395243, "INCLINATION": 56.578, "RA_OF_ASC_NODE": 338.2238, "ARG_OF_PERICENTER": 319.4951, "MEAN_ANOMALY": 40.2191, "EPHEMERIS_TYPE": 0, "CLASSIFICATION_TYPE": "U", "NORAD_CAT_ID": 39741, "ELEMENT_SET_NO": 999, "REV_AT_EPOCH": 8508, "BSTAR": 0, "MEAN_MOTION_DOT": -5.7e-07, "MEAN_MOTION_DDOT": 0}, "tle": {"line1": "1 39741U 14026A   25360.95299356 -.00000057  00000+0  00000+0 0  9992", "line2": "2 39741  56.5780 338.2238 0039524 319.4951  40.2191  2.00560233 85080"}}, "geometry": {"type": "Point", "coordinates": [168.70674726178527, -15.43988819247679]}}, {"type": "Feature", "properties": {"norad_id": 40105, "name": "GPS BIIF-7  (PRN 09)", "group": "gps-ops", "lat": 33.93224167657325, "lon": -112.4915497306222, "alt_km": 20094.926117197756, "timestamp": "2025-12-27T05:29:39.461956+00:00", "meta": {"OBJECT_NAME": "GPS BIIF-7  (PRN 09)", "OBJECT_ID": "2014-045A", "EPOCH": "2025-12-23T13:11:32.096256", "MEAN_MOTION": 2.00573211, "ECCENTRICITY": 0.00324114, "INCLINATION": 55.2352, "RA_OF_ASC_NODE": 95.4677, "ARG_OF_PERICENTER": 120.1575, "MEAN_ANOMALY": 240.1743, "EPHEMERIS_TYPE": 0, "CLASSIFICATION_TYPE": "U", "NORAD_CAT_ID": 40105, "ELEMENT_SET_NO": 999, "REV_AT_EPOCH": 8255, "BSTAR": 0, "MEAN_MOTION_DOT": 8e-08, "MEAN_MOTION_DDOT": 0}, "tle": {"line1": "1 40105U 14045A   25357.54967704  .00000008  00000+0  00000+0 0  9994", "line2": "2 40105  55.2352  95.4677 0032411 120.1575 240.1743  2.00573211 82556"}}, "geometry": {"type": "Point", "coordinates": [-112.4915497306222, 33.93224167657325]}}, {"type": "Feature", "properties": {"norad_id": 40294, "name": "GPS BIIF-8  (PRN 03)", "group": "gps-ops", "lat": -36.61724934699649, "lon": -113.38086393171075, "alt_km": 20334.87894686111, "timestamp": "2025-12-27T05:29:39.461967+00:00", "meta": {"OBJECT_NAME": "GPS BIIF-8  (PRN 03)", "OBJECT_ID": "2014-068A", "EPOCH": "2025-12-26T10:04:05.409984", "MEAN_MOTION": 2.00565591, "ECCENTRICITY": 0.0060863, "INCLINATION": 56.8679, "RA_OF_ASC_NODE": 37.6169, "ARG_OF_PERICENTER": 68.8991, "MEAN_ANOMALY": 291.813, "EPHEMERIS_TYPE": 0, "CLASSIFICATION_TYPE": "U", "NORAD_CAT_ID": 40294, "ELEMENT_SET_NO": 999, "REV_AT_EPOCH": 8174, "BSTAR": 0, "MEAN_MOTION_DOT": -4.9e-07, "MEAN_MOTION_DDOT": 0}, "tle": {"line1": "1 40294U 14068A   25360.41950706 -.00000049  00000+0  00000+0 0  9998", "line2": "2 40294  56.8679  37.6169 0060863  68.8991 291.8130  2.00565591 81745"}}, "geometry": {"type": "Point", "coordinates": [-113.38086393171075, -36.61724934699649]}}]}